[{"OBJECT_NAME":"ITAMSAT (IO-26)","OBJECT_ID":"1993-061D","EPOCH":"2026-03-09T18:51:40.558176","MEAN_MOTION":14.31337175,"ECCENTRICITY":0.00091856,"INCLINATION":98.6929,"RA_OF_ASC_NODE":136.1036,"ARG_OF_PERICENTER":22.8845,"MEAN_ANOMALY":337.2746,"EPHEMERIS_TYPE":0,"CLASSIFICATION_TYPE":"U","NORAD_CAT_ID":22826,"ELEMENT_SET_NO":999,"REV_AT_EPOCH":69309,"BSTAR":7.3937292e-5,"MEAN_MOTION_DOT":1.51e-6,"MEAN_MOTION_DDOT":0},{"OBJECT_NAME":"THOR BURNER 2 R\/B","OBJECT_ID":"1966-082B","EPOCH":"2026-03-09T22:43:41.788416","MEAN_MOTION":14.46688566,"ECCENTRICITY":0.01108888,"INCLINATION":98.2287,"RA_OF_ASC_NODE":226.3915,"ARG_OF_PERICENTER":149.3995,"MEAN_ANOMALY":211.3729,"EPHEMERIS_TYPE":0,"CLASSIFICATION_TYPE":"U","NORAD_CAT_ID":2422,"ELEMENT_SET_NO":999,"REV_AT_EPOCH":10092,"BSTAR":0.00021515318,"MEAN_MOTION_DOT":7.93e-6,"MEAN_MOTION_DDOT":0}]
